[{"OBJECT_NAME":"AE2A","OBJECT_ID":"2025-135BR","EPOCH":"2026-03-09T22:31:40.668960","MEAN_MOTION":14.96072328,"ECCENTRICITY":0.00037442,"INCLINATION":97.7564,"RA_OF_ASC_NODE":184.9238,"ARG_OF_PERICENTER":309.3456,"MEAN_ANOMALY":50.7433,"EPHEMERIS_TYPE":0,"CLASSIFICATION_TYPE":"U","NORAD_CAT_ID":64591,"ELEMENT_SET_NO":999,"REV_AT_EPOCH":3911,"BSTAR":0.00073209812,"MEAN_MOTION_DOT":8.175e-5,"MEAN_MOTION_DDOT":0},{"OBJECT_NAME":"SHIYAN-30 02","OBJECT_ID":"2025-222B","EPOCH":"2026-03-09T20:48:28.945152","MEAN_MOTION":14.93183187,"ECCENTRICITY":0.00052159,"INCLINATION":34.9961,"RA_OF_ASC_NODE":137.653,"ARG_OF_PERICENTER":257.9316,"MEAN_ANOMALY":102.0805,"EPHEMERIS_TYPE":0,"CLASSIFICATION_TYPE":"U","NORAD_CAT_ID":65852,"ELEMENT_SET_NO":999,"REV_AT_EPOCH":2417,"BSTAR":0.0003172838,"MEAN_MOTION_DOT":3.351e-5,"MEAN_MOTION_DDOT":0}]
